GAOFEN-5 01             
1 43461U 18043A   26061.87581580  .00000577  00000+0  12907-3 0  9991
2 43461  98.4453  31.3043 0002866  64.9641 295.1856 14.60514132416171
GAOFEN-6                
1 43484U 18048A   26062.22289113  .00001263  00000+0  18780-3 0  9996
2 43484  97.7893 128.7321 0012739 154.3792 205.8052 14.76583515417756
GAOFEN-11 01            
1 43585U 18063A   26062.22790691  .00018428  00000+0  30745-3 0  9999
2 43585  97.1435 129.5854 0004316  25.4313 334.7152 15.52005802423891
ICESAT-2                
1 43613U 18070A   26062.14461536  .00003662  00000+0  13295-3 0  9998
2 43613  91.9987 262.4079 0002988 133.7783 226.3714 15.28272931416265
HYSIS                   
1 43719U 18096A   26062.17220225  .00001165  00000+0  16618-3 0  9992
2 43719  97.9962 129.6990 0001680 102.5223 257.6176 14.78637358391755
KAZSTSAT                
1 43783U 18099AB  26062.07983822  .00001036  00000+0  88724-4 0  9999
2 43783  97.4415  98.7631 0007351  32.2345 327.9327 14.99602279395409
SAUDISAT 5A             
1 43831U 18102A   26062.17046603  .00007304  00000+0  27931-3 0  9992
2 43831  97.3205 125.8147 0010963 143.1534 217.0460 15.26827526399493
SAUDISAT 5B             
1 43833U 18102C   26062.20909793  .00007489  00000+0  28357-3 0  9993
2 43833  97.3302 128.7332 0011624 145.4752 214.7244 15.27141043399615
GAOFEN-10R              
1 44622U 19066A   26062.15437166  .00001844  00000+0  23290-3 0  9994
2 44622  98.0388  15.0431 0007879 124.0090 236.1873 14.83124520346662
CARTOSAT-3              
1 44804U 19081A   26062.18230781  .00006190  00000+0  29561-3 0  9996
2 44804  97.4441 125.6855 0013421 160.4578 199.7174 15.19324781347378
GAOFEN-12 01            
1 44819U 19082A   26062.16613469  .00000624  00000+0  88430-4 0  9996
2 44819  97.8141  71.3361 0002044  64.4471 295.6952 14.80355484338403
CSG-1                   
1 44873U 19092A   26062.19482194  .00000722  00000+0  97246-4 0  9993
2 44873  97.8862 247.3267 0001325  86.8793 273.2572 14.82162262335778
NEMO-HD                 
1 46277U 20061F   26062.19719213  .00012701  00000+0  29658-3 0  9997
2 46277  97.2061 125.3203 0002561  86.1174 274.0367 15.42323565305632
SENTINEL-6A             
1 46984U 20086A   26062.13647045 -.00000057  00000+0  16639-4 0  9994
2 46984  66.0445 355.3218 0007820 270.7922  89.2197 12.80929535246744
GAOFEN-12 02            
1 48079U 21026A   26062.16592041  .00000611  00000+0  87372-4 0  9991
2 48079  97.9912  60.7977 0004065 202.8089 157.2942 14.80193510266070
PLEIADES NEO 3          
1 48268U 21034A   26062.22717642 -.00000046  00000+0  82531-6 0  9990
2 48268  97.8936 138.5148 0001264  92.6873 267.4485 14.81672168261964
PLEIADES NEO 4          
1 49070U 21073E   26062.19339729 -.00001695  00000+0 -20881-3 0  9996
2 49070  97.8941 138.4774 0001403  91.9827 268.1547 14.81670889245677
