[{"OBJECT_NAME":"GAOFEN-5 01","OBJECT_ID":"2018-043A","EPOCH":"2026-03-02T21:01:10.485120","MEAN_MOTION":14.60514132,"ECCENTRICITY":0.0002866,"INCLINATION":98.4453,"RA_OF_ASC_NODE":31.3043,"ARG_OF_PERICENTER":64.9641,"MEAN_ANOMALY":295.1856,"EPHEMERIS_TYPE":0,"CLASSIFICATION_TYPE":"U","NORAD_CAT_ID":43461,"ELEMENT_SET_NO":999,"REV_AT_EPOCH":41617,"BSTAR":0.00012907,"MEAN_MOTION_DOT":5.77e-6,"MEAN_MOTION_DDOT":0},{"OBJECT_NAME":"GAOFEN-6","OBJECT_ID":"2018-048A","EPOCH":"2026-03-03T05:20:57.793632","MEAN_MOTION":14.76583515,"ECCENTRICITY":0.0012739,"INCLINATION":97.7893,"RA_OF_ASC_NODE":128.7321,"ARG_OF_PERICENTER":154.3792,"MEAN_ANOMALY":205.8052,"EPHEMERIS_TYPE":0,"CLASSIFICATION_TYPE":"U","NORAD_CAT_ID":43484,"ELEMENT_SET_NO":999,"REV_AT_EPOCH":41775,"BSTAR":0.0001878,"MEAN_MOTION_DOT":1.263e-5,"MEAN_MOTION_DDOT":0},{"OBJECT_NAME":"GAOFEN-11 01","OBJECT_ID":"2018-063A","EPOCH":"2026-03-03T05:28:11.157024","MEAN_MOTION":15.52005802,"ECCENTRICITY":0.0004316,"INCLINATION":97.1435,"RA_OF_ASC_NODE":129.5854,"ARG_OF_PERICENTER":25.4313,"MEAN_ANOMALY":334.7152,"EPHEMERIS_TYPE":0,"CLASSIFICATION_TYPE":"U","NORAD_CAT_ID":43585,"ELEMENT_SET_NO":999,"REV_AT_EPOCH":42389,"BSTAR":0.00030745,"MEAN_MOTION_DOT":0.00018428,"MEAN_MOTION_DDOT":0},{"OBJECT_NAME":"ICESAT-2","OBJECT_ID":"2018-070A","EPOCH":"2026-03-03T03:28:14.767104","MEAN_MOTION":15.28272931,"ECCENTRICITY":0.0002988,"INCLINATION":91.9987,"RA_OF_ASC_NODE":262.4079,"ARG_OF_PERICENTER":133.7783,"MEAN_ANOMALY":226.3714,"EPHEMERIS_TYPE":0,"CLASSIFICATION_TYPE":"U","NORAD_CAT_ID":43613,"ELEMENT_SET_NO":999,"REV_AT_EPOCH":41626,"BSTAR":0.00013295,"MEAN_MOTION_DOT":3.662e-5,"MEAN_MOTION_DDOT":0},{"OBJECT_NAME":"HYSIS","OBJECT_ID":"2018-096A","EPOCH":"2026-03-03T04:07:58.274400","MEAN_MOTION":14.78637358,"ECCENTRICITY":0.000168,"INCLINATION":97.9962,"RA_OF_ASC_NODE":129.699,"ARG_OF_PERICENTER":102.5223,"MEAN_ANOMALY":257.6176,"EPHEMERIS_TYPE":0,"CLASSIFICATION_TYPE":"U","NORAD_CAT_ID":43719,"ELEMENT_SET_NO":999,"REV_AT_EPOCH":39175,"BSTAR":0.00016618,"MEAN_MOTION_DOT":1.165e-5,"MEAN_MOTION_DDOT":0},{"OBJECT_NAME":"KAZSTSAT","OBJECT_ID":"2018-099AB","EPOCH":"2026-03-03T01:54:58.022208","MEAN_MOTION":14.99602279,"ECCENTRICITY":0.0007351,"INCLINATION":97.4415,"RA_OF_ASC_NODE":98.7631,"ARG_OF_PERICENTER":32.2345,"MEAN_ANOMALY":327.9327,"EPHEMERIS_TYPE":0,"CLASSIFICATION_TYPE":"U","NORAD_CAT_ID":43783,"ELEMENT_SET_NO":999,"REV_AT_EPOCH":39540,"BSTAR":8.8724e-5,"MEAN_MOTION_DOT":1.036e-5,"MEAN_MOTION_DDOT":0},{"OBJECT_NAME":"SAUDISAT 5A","OBJECT_ID":"2018-102A","EPOCH":"2026-03-03T04:05:28.264992","MEAN_MOTION":15.26827526,"ECCENTRICITY":0.0010963,"INCLINATION":97.3205,"RA_OF_ASC_NODE":125.8147,"ARG_OF_PERICENTER":143.1534,"MEAN_ANOMALY":217.046,"EPHEMERIS_TYPE":0,"CLASSIFICATION_TYPE":"U","NORAD_CAT_ID":43831,"ELEMENT_SET_NO":999,"REV_AT_EPOCH":39949,"BSTAR":0.00027931,"MEAN_MOTION_DOT":7.304e-5,"MEAN_MOTION_DDOT":0},{"OBJECT_NAME":"SAUDISAT 5B","OBJECT_ID":"2018-102C","EPOCH":"2026-03-03T05:01:06.061152","MEAN_MOTION":15.27141043,"ECCENTRICITY":0.0011624,"INCLINATION":97.3302,"RA_OF_ASC_NODE":128.7332,"ARG_OF_PERICENTER":145.4752,"MEAN_ANOMALY":214.7244,"EPHEMERIS_TYPE":0,"CLASSIFICATION_TYPE":"U","NORAD_CAT_ID":43833,"ELEMENT_SET_NO":999,"REV_AT_EPOCH":39961,"BSTAR":0.00028357,"MEAN_MOTION_DOT":7.489e-5,"MEAN_MOTION_DDOT":0},{"OBJECT_NAME":"GAOFEN-10R","OBJECT_ID":"2019-066A","EPOCH":"2026-03-03T03:42:17.711424","MEAN_MOTION":14.8312452,"ECCENTRICITY":0.0007879,"INCLINATION":98.0388,"RA_OF_ASC_NODE":15.0431,"ARG_OF_PERICENTER":124.009,"MEAN_ANOMALY":236.1873,"EPHEMERIS_TYPE":0,"CLASSIFICATION_TYPE":"U","NORAD_CAT_ID":44622,"ELEMENT_SET_NO":999,"REV_AT_EPOCH":34666,"BSTAR":0.0002329,"MEAN_MOTION_DOT":1.844e-5,"MEAN_MOTION_DDOT":0},{"OBJECT_NAME":"CARTOSAT-3","OBJECT_ID":"2019-081A","EPOCH":"2026-03-03T04:22:31.394784","MEAN_MOTION":15.19324781,"ECCENTRICITY":0.0013421,"INCLINATION":97.4441,"RA_OF_ASC_NODE":125.6855,"ARG_OF_PERICENTER":160.4578,"MEAN_ANOMALY":199.7174,"EPHEMERIS_TYPE":0,"CLASSIFICATION_TYPE":"U","NORAD_CAT_ID":44804,"ELEMENT_SET_NO":999,"REV_AT_EPOCH":34737,"BSTAR":0.00029561,"MEAN_MOTION_DOT":6.19e-5,"MEAN_MOTION_DDOT":0},{"OBJECT_NAME":"GAOFEN-12 01","OBJECT_ID":"2019-082A","EPOCH":"2026-03-03T03:59:14.037216","MEAN_MOTION":14.80355484,"ECCENTRICITY":0.0002044,"INCLINATION":97.8141,"RA_OF_ASC_NODE":71.3361,"ARG_OF_PERICENTER":64.4471,"MEAN_ANOMALY":295.6952,"EPHEMERIS_TYPE":0,"CLASSIFICATION_TYPE":"U","NORAD_CAT_ID":44819,"ELEMENT_SET_NO":999,"REV_AT_EPOCH":33840,"BSTAR":8.843e-5,"MEAN_MOTION_DOT":6.24e-6,"MEAN_MOTION_DDOT":0},{"OBJECT_NAME":"CSG-1","OBJECT_ID":"2019-092A","EPOCH":"2026-03-03T04:40:32.615616","MEAN_MOTION":14.82162262,"ECCENTRICITY":0.0001325,"INCLINATION":97.8862,"RA_OF_ASC_NODE":247.3267,"ARG_OF_PERICENTER":86.8793,"MEAN_ANOMALY":273.2572,"EPHEMERIS_TYPE":0,"CLASSIFICATION_TYPE":"U","NORAD_CAT_ID":44873,"ELEMENT_SET_NO":999,"REV_AT_EPOCH":33577,"BSTAR":9.7246e-5,"MEAN_MOTION_DOT":7.22e-6,"MEAN_MOTION_DDOT":0},{"OBJECT_NAME":"NEMO-HD","OBJECT_ID":"2020-061F","EPOCH":"2026-03-03T04:43:57.400032","MEAN_MOTION":15.42323565,"ECCENTRICITY":0.0002561,"INCLINATION":97.2061,"RA_OF_ASC_NODE":125.3203,"ARG_OF_PERICENTER":86.1174,"MEAN_ANOMALY":274.0367,"EPHEMERIS_TYPE":0,"CLASSIFICATION_TYPE":"U","NORAD_CAT_ID":46277,"ELEMENT_SET_NO":999,"REV_AT_EPOCH":30563,"BSTAR":0.00029658,"MEAN_MOTION_DOT":0.00012701,"MEAN_MOTION_DDOT":0},{"OBJECT_NAME":"SENTINEL-6A","OBJECT_ID":"2020-086A","EPOCH":"2026-03-03T03:16:31.046880","MEAN_MOTION":12.80929535,"ECCENTRICITY":0.000782,"INCLINATION":66.0445,"RA_OF_ASC_NODE":355.3218,"ARG_OF_PERICENTER":270.7922,"MEAN_ANOMALY":89.2197,"EPHEMERIS_TYPE":0,"CLASSIFICATION_TYPE":"U","NORAD_CAT_ID":46984,"ELEMENT_SET_NO":999,"REV_AT_EPOCH":24674,"BSTAR":1.6639e-5,"MEAN_MOTION_DOT":-5.7e-7,"MEAN_MOTION_DDOT":0},{"OBJECT_NAME":"GAOFEN-12 02","OBJECT_ID":"2021-026A","EPOCH":"2026-03-03T03:58:55.523424","MEAN_MOTION":14.8019351,"ECCENTRICITY":0.0004065,"INCLINATION":97.9912,"RA_OF_ASC_NODE":60.7977,"ARG_OF_PERICENTER":202.8089,"MEAN_ANOMALY":157.2942,"EPHEMERIS_TYPE":0,"CLASSIFICATION_TYPE":"U","NORAD_CAT_ID":48079,"ELEMENT_SET_NO":999,"REV_AT_EPOCH":26607,"BSTAR":8.7372e-5,"MEAN_MOTION_DOT":6.11e-6,"MEAN_MOTION_DDOT":0},{"OBJECT_NAME":"PLEIADES NEO 3","OBJECT_ID":"2021-034A","EPOCH":"2026-03-03T05:27:08.042688","MEAN_MOTION":14.81672168,"ECCENTRICITY":0.0001264,"INCLINATION":97.8936,"RA_OF_ASC_NODE":138.5148,"ARG_OF_PERICENTER":92.6873,"MEAN_ANOMALY":267.4485,"EPHEMERIS_TYPE":0,"CLASSIFICATION_TYPE":"U","NORAD_CAT_ID":48268,"ELEMENT_SET_NO":999,"REV_AT_EPOCH":26196,"BSTAR":8.2531e-7,"MEAN_MOTION_DOT":-4.6e-7,"MEAN_MOTION_DDOT":0},{"OBJECT_NAME":"PLEIADES NEO 4","OBJECT_ID":"2021-073E","EPOCH":"2026-03-03T04:38:29.525856","MEAN_MOTION":14.81670889,"ECCENTRICITY":0.0001403,"INCLINATION":97.8941,"RA_OF_ASC_NODE":138.4774,"ARG_OF_PERICENTER":91.9827,"MEAN_ANOMALY":268.1547,"EPHEMERIS_TYPE":0,"CLASSIFICATION_TYPE":"U","NORAD_CAT_ID":49070,"ELEMENT_SET_NO":999,"REV_AT_EPOCH":24567,"BSTAR":-0.00020881,"MEAN_MOTION_DOT":-1.695e-5,"MEAN_MOTION_DDOT":0}]
